"id","first","last","address","city","state","zip","address"
"1","Darrell","Patterson","354 Biica Plaza","Kodgalame","MD","9719",""
"2","Addie","Montgomery","790 Johen Highway","Wiwgiziv","NH","86875",""
"3","Inez","Snyder","1852 Mudej Lane","Vefjufzi","MS","99109",""
"4","Johanna","Green","541 Lafus Turnpike","Ovozice","MA","14846",""
"5","Evan","Cooper","87 Figuj Extension","Murkarru","CA","43176",""
"6","Ann","Perkins","1615 Kewda Parkway","Wokatefal","MI","2640",""
"7","Bruce","Stephens","921 Fadag Trail","Raloco","ND","40651",""
"8","Winifred","Reeves","75 Kejet Center","Hijuweib","DE","66711",""
"9","Larry","Day","255 Gaga Center","Simsovi","IN","37104",""
"10","Connor","Rowe","1784 Ilha Boulevard","Vepvepo","WA","87998",""
"11","Kevin","Robbins","372 Faut Avenue","Nozomu","RI","80208",""
"12","Derrick","Drake","1500 Fule Point","Kilejzod","VA","80726",""
"13","Evelyn","Figueroa","560 Agija Extension","Demjuve","AK","10523",""
"14","Blake","Hawkins","1462 Muope Way","Awcocer","VT","46064",""
"15","Ethan","Beck","1202 Mupgu Terrace","Vekisabi","NV","12640",""
"16","Todd","Bowen","669 Ikaf Square","Kiwuduroj","CO","26282",""
"17","Christian","Lucas","783 Apjif Key","Johawhe","MA","48646",""
"18","Lou","Snyder","42 Ovkib Glen","Fuecgan","MA","10724",""
"19","Angel","Todd","1452 Idca Park","Lemuzti","MA","47315",""
"20","Susan","Harris","1901 Eluhu Grove","Cazaow","MO","30595",""
"21","Beulah","Austin","631 Diccav Center","Ozorire","SD","6686","61 Diccav Center"
"22","Lewis","Wood","916 Koni Square","Gilodi","TX","83509",""
"23","Scott","Clayton","1800 Niho Glen","Uhlesetu","ME","23545",""
"24","William","Lewis","130 Nolra Ridge","Sofibiwo","LA","63256",""
"25","Micheal","Welch","1403 Cedcug Pass","Zakimiec","MI","58060",""
"26","Josephine","Dixon","443 Fuwavo River","Cunlibwep","VA","24132",""
"27","Caroline","Herrera","525 Cirlu Road","Ulenunez","CA","42405",""
"28","Lou","Marshall","540 Kuzog Place","Effofa","NE","93536",""
"29","Verna","Underwood","1762 Nuken Road","Visrenino","UT","45861",""
"30","Antonio","Ingram","578 Nueve Plaza","Hoivaam","FL","14196",""
"31","Alex","Harvey","965 Fubbip Circle","Biblabku","NV","75269",""
"32","Abbie","Collins","329 Ifouho Avenue","Huvrobor","AL","99033",""
"33","Milton","Malone","1531 Tace Trail","Hecjemri","DE","24358",""
"34","Winifred","Reese","767 Zorec Ridge","Pufzofwe","MO","78659",""
"35","Isabella","Reeves","402 Ufuzaw Grove","Jozpefez","MO","30355",""
"36","Brian","Castro","102 Epajid Lane","Agbomuc","MI","4883",""
"37","Mathilda","Tucker","1733 Kahe Pass","Ramjefiz","GA","87400",""
"38","Ann","Griffin","1083 Tepos Terrace","Mafirnan","OH","6472",""
"39","Maurice","Fields","1804 Gofpas Terrace","Rikzoas","DC","3867",""
"40","Carlos","Guerrero","1444 Pomunu Glen","Zodgiwjiw","WI","36274",""
"41","Trevor","Freeman","269 Gamul Extension","Rufeti","CT","1581",""
"42","Victoria","Schmidt","732 Keko Loop","Cibeos","OK","16950",""
"43","Barry","Sherman","569 Vegor Street","Guuljil","OR","93704",""
"44","Joseph","Carr","1706 Huga Junction","Kosopasa","ID","34136",""
"45","Jose","Bass","725 Cirmo Street","Nohilje","VT","2098",""
"46","Helena","Elliott","1465 Sosej Glen","Masgowhu","MA","74102",""
"47","Gabriel","~Becker","1199 Cewas Point","Guzophel","IL","78413",""
"48","Winnie","Casey","717 Nuod Avenue","Cuwdihe","VA","76022",""

"49","Elsie","Price","430 Nibew Lane","Fumamtil","FL","74800",""
"50","Brett","Brown","306 Nihin Pike","Elhujip","KY","67741",""
"51","Jeffrey","Hamilton","9 Cabo Path","Hurasib","MT","99374",""
"52","Eva","McCormick","207 Olidiz Key","Rulapif","DE","86410",""
"53","Corey","Wong","531 Ojdun Pass","Nagine","KY","10802",""
"54","Darrell","Oliver","1458 Mubduh Key","Amunoto","OH","72640",""
"55","Inez","Holmes","68 Jovnah Path","Gawejuaju","RI","29451",""
"56","Eddie","Wallace","364 Derew Place","Okauderef","ID","29350",""
"57","Edith","Price","1307 Zidca Circle","Hipwoczo","MI","64366",""
"58","Milton","Lowe","292 Akuare Manor","Aszepeh","PA","56628",""
"59","Paul","Gonzales","1977 Afuru Square","Nawuwhih","MO","39793",""
"60","Josie","Garner","1082 Veko Court","Akogabvoj","IN","31463",""
"61","Phillip","Roberson","1682 Ruac Trail","Ritjilgem","UT","10853",""
"62","Danny","Cooper","1702 Nictuk Square","Ugwonik","FL","50991","1702 Pero Square"
"63","Francis","Love","1915 Runo Drive","Gajmimsec","MD","43704",""
"64","Craig","White","244 Tubtiz Point","Alatni","NC","82765",""
"65","Rose","Reed","1150 Apasa View","Gavajjan","SC","2515",""
"66","Cynthia","Estrada","1345 Robbu Drive","Jihpurep","NV","86127",""
"67","Elmer","Spencer","1780 Fode Loop","Aweivuko","AK","88124",""
"68","Jerry","Strickland","1720 Ridham Square","Zercuonu","ID","44774",""
"69","Tommy","Roberson","1080 Loram Loop","Hoceziiho","WA","29903",""
"70","Landon","Moran","1154 Bebote Boulevard","Zimohmo","RI","51091",""
"71","Isabel","Joseph","968 Pero Center","Lalestic","WI","15962",""
"72","Don","Carter","746 Wurus Path","Jurelcoc","DC","23454",""
"73","Charlie","Haynes","1273 Tekon Mill","Owlijji","IA","88322",""
"74","Mitchell","Larson","645 Iwase Glen","Zudguzzo","WA","52724",""
"75","Leah","Collier","325 Sicat Park","Fiuvejom","WY","56069",""
"76","Randall","Adams","975 Divdi Place","Futsoksu","IA","82717",""
"77","Millie","Davidson","336 Opebo Manor","Pếbjilu","UT","24365",""
"78","Melvin","Mitchell","923 Pubtop Court","Uzlahgok","AK","94663",""
"79","Ruby","Williamson","1226 Fuhkil Park","Divsozon","DE","87856",""
"80","Dominic","Brock","1143 Kobug Way","Caivituf","WV","42427",""
"81","Leona","Graham","1255 Afojo Place","Tusomjaf","NY","52879",""
"82","Jon","McKinney","484 Hiel Boulevard","Zehizal","VA","48404",""
"83","Lloyd","Schneider","588 Vuloz Square","Joomaipe","CT","41125",""
"84","Estelle","Marsh","1673 Ujze Turnpike","Opoigina","PA","46964",""
"85","Eugenia","Neal","937 Higwul Avenue","Nenarli","NC","43236",""
"86","Warren","Gutierrez","1648 Ocuti Drive","Capeciw","IA","74598",""
"87","Fred","Powers","1272 Makev Way","Nonaznu","TX","36931",""
"88","Alta","Strickland","1975 Avdav Junction","Neuhuf","OR","59567",""
"89","Dale","Steele","1363 Jeuz Avenue","Sadahji","MT","45126",""
"90","Curtis","Drake","944 Vapi Road","Jojolwi","MN","37850",""
"91","Patrick","Freeman","1924 Dentef Way","Facahsup","OR","45177",""
"92","Kate","Murray","1340 Jusna Path","Janipu","AZ","43768",""
"93","Lida","McCoy","1859 Deha River","Sitmejun","DC","58138",""
"94","Gerald","Dean","47 Bezav Path","Motempu","VT","41153",""
"95","Gregory","Johnston","1422 Edizib Road","Sobuhu","WY","21010",""
"96","Teresa","Reed","852 Istiv Park","Nesfahda","CO","86000",""
"97","Christina","Bailey","1834 Wimvo Loop","Nunvolji","MN","90060",""
"98","Rosie","Nichols","1101 Ahiir Junction","Radevuwe","VT","6833",""
"99","Micheal","Boyd","1614 Pinfu Center","Ucrukzum","MT","28647",""
"100","Lester","Hunter","1193 Vakasi Terrace","Colzove","MT","57657",""
"101","Lucas","Daniels","104 Ibnoj Ridge","Ibudioso","PA","93408",""
"102","Charlotte","Burgess","501 Gizo Mill","Nagpahkul","WY","80238",""
"103","Harold","Padilla","532 Cadci River","Bianarog","MN","90377",""
"104","Phoebe","Reyes","795 Fifo Turnpike","Konubod","GA","78213",""
"105","Dora","Powell","141 Fikce Ridge","Upugazju","NM","51033",""
"106","Cole","Bush","425 Ruar Boulevard","Nefaden","NC","56802",""
"107","Jay","Adkins","342 Koce Glen","Berwesaw","AL","32959",""
"108","Edward","Curry","263 Fodib Glen","Nihuhip","IA","48656",""
"109","Theresa","Allen","1142 Rudi Street","Wemigmun","MS","76769",""
"110","Jason","Bush","943 Jifrup Square","Naipucib","NJ","58970",""
"111","Sophia","Fisher","420 Doev Drive","Suglaani","NV","40744",""
"112","Lettie","Carroll","1996 Arto Plaza","Vamafi","SC","11151",""
"113","Nellie","Stewart","1789 Gete View","Lazekocos","NM","25948",""
"114","Douglas","McCarthy","1404 Imka Terrace","Bipasih","LA","61802",""
"115","Georgie","Reese","1880 Siizi Point","Fumledve","NJ","78471",""
"116","Eugene","Moody","592 Lurir Glen","Dosirec","OK","69625",""
"117","George","Hudson","1896 Acahef Avenue","Boawvef","ID","51187",""
"118","Vincent","Thompson","1596 Lafwor Road","Musosup","GA","92440",""
"119","Jordan","Sims","696 Jidna Highway","Jufhimug","AR","53198",""
"120","Edward","Gilbert","1455 Lomved Street","Fujzerfuv","DE","62844",""
"121","Cecilia","Gomez","438 Wari Loop","Vedozih","LA","78611",""
"122","Mattie","Fowler","268 Lehul Parkway","Laronalid","NH","32163",""
"123","Sally","Stephens","1704 Dujov Park","Babciar","IL","51430",""
"124","Jesse","Wilkins","1693 Onzi Drive","Kevekbo","SD","22835",""
"125","Ada","Payne","1336 Jeztu Point","Iwucuda","MA","81824",""
"126","Bess","Ballard","213 Tirkeb Grove","Cutarje","NY","22447",""
"127","Vera","Arnold","758 Robnuw Turnpike","Setogarac","MA","80737",""
"128","Hulda","Dennis","1633 Ujijuk Center","Bugacuv","VT","41762",""
"129","Vernon","Crawford","1003 Rezta Park","Zuliemo","KS","27982",""
"130","Mabel","Clarke","508 Cuponi Terrace","Gajseke","KY","5389",""
"131","Celia","Gibson","151 Fieh Drive","Bepolag","GA","56995",""
"132","Polly","Lewis","637 Gezavu Glen","Jabcukri","TX","88945",""
"133","Dale","Neal","767 Tusu Point","Ejhazmen","IL","42126",""
"134","Justin","Vargas","268 Dife Square","Ladesite","AK","69257",""
"135","Eleanor","Fox","1628 Nafite Drive","Odowiip","NY","98387",""
"136","Myra","Maldonado","1571 Navwi Grove","Gogdurwum","NY","64271",""
"137","Rena","Moran","567 Bumed Terrace","Cuitupu","OK","24033",""
"138","Pauline","King","1239 Kezju Road","Nukzoble","OK","71294",""
"139","Christine","Chandler","183 Pamu Trail","Milutu","OK","34189",""
"140","Logan","Taylor","1984 Venjo Center","Simorwip","MN","73644",""
"141","Chase","Roy","1183 Bezda Avenue","Uhwoub","HI","47421",""
"142","Arthur","Gregory","105 Vavdu Way","Ohesizzi","NE","3606",""
"143","Ricky","Paul","87 Rupu Mill","Nehocsen","LA","70358",""
"144","Lilly","Alvarado","922 Amosu Key","Guvauw","OH","24024",""
"145","Rosetta","Salazar","1701 Cuzpo Circle","Mozzuwfu","IN","61763",""
"146","Millie","Cortez","1574 Okkic Key","Nozcuvi","SC","16051",""
"147","Willie","Caldwell","1337 Defi Highway","Ertaki","NH","77048",""
"148","Ralph","Edwards","1342 Amova Drive","Etbawbup","MA","74017",""
"149","Roxie","Poole","1778 Uhokeh Road","Hijkudgik","PA","65602",""
"150","Gary","Porter","1050 Licuz River","Lukkamu","MO","51566",""
"151","Terry","Chambers","1322 Ihieta Pike","Gapkedi","TX","58145",""
"152","Dustin","Hill","1148 Kuzig Boulevard","Mafzackak","OK","44876",""
"153","Rena","Hughes","1552 Kolte Highway","Rensuiz","NE","92496",""
"154","Tyler","McGee","437 Azer Park","Wupahit","AR","83845",""
"155","Tyler","Wallace","1060 Wiwrum Avenue","Fahiva","CO","60328",""
"156","Leo","Mann","1503 Acoepo Path","Cozvivti","PA","47285",""
"157","Tillie","Berry","1618 Oguap Terrace","Urketi","PA","22882",""
"158","Louis","Robertson","954 Nonhim Extension","Zanela","SC","26627",""
"159","Mario","Robinson","1604 Imofo Drive","Joalna","NV","91254",""
"160","Jonathan","Jenkins","466 Osati Center","Uzefodij","NV","25946",""
"161","Andrew","Alvarado","1167 Wapto Avenue","Hintajsez","PA","36487",""
"162","Blanche","Harvey","1734 Avefeg Loop","Zudufece","IA","75754",""
"163","Dennis","Vargas","1076 Murduf Road","Ehefiudo","AR","53413",""
"164","Billy","Black","1795 Cimis Key","Ziskambi","SC","65701",""
"165","Marion","Tyler","99 Afmi Street","Ohsojde","UT","31513",""
"166","Willie","Mitchell","1423 Kike Lane","Ceimveh","UT","66995",""
"167","Daisy","Williams","1112 Rogos Street","Monauc","OR","98776",""
"168","Pearl","Henry","251 Sijer Trail","Etauguke","VA","21725",""
"169","Travis","Lloyd","1626 Icrid Trail","Awfema","AK","57304",""

"170","Brett","Ramos","1544 Soviti Square","Vesowej","WV","61222",""
"171","Timothy","Gilbert","160 Ilale Glen","Niibuna","ID","18348",""
"172","Ellen","Soto","329 Latfek Grove","Ujocumzo","IA","21406",""
"173","Marc","Allen","154 Besin Court","Mumkakde","WV","16257",""
"174","Beatrice","Santiago","1033 Wolmoh Extension","Anariuk","OK","53731",""
"175","Lida","Webb","360 Wotuz Center","Pemihi","NC","4761",""
"176","Logan","Woods","880 Tiala Loop","Ucnokrak","MT","8702",""
"177","Logan","Williamson","633 Tinaja Highway","Jabmamref","MN","74643",""
"178","Logan","Freeman","817 Wadara Point","Ehunusef","NM","64805",""
"179","Etta","Patton","176 Kugu Street","Mamiose","HI","72314",""
"180","Craig","Conner","1393 Kebwe Road","Vahiso","ME","49268",""
"181","Caroline","Clarke","1477 Wevbo Square","Rucbezfad","CO","17397",""
"182","Hannah","Wright","1614 Kisdo Parkway","Cinivdir","MS","86476",""
"183","Virginia","Grant","1518 Nadbe View","Efmutef","NE","36142",""
"184","Olga","Dunn","1634 Nossu River","Gumukpil","LA","21235",""
"185","Lura","Fowler","772 Jutu Place","Pevowumer","NJ","85728",""
"186","Mark","Mason","1770 Viepa Trail","Casidba","KY","19781",""
"187","Lee","Brown","1491 Lohas Circle","Jemiwar","CO","2003",""
"188","Brian","Flores","528 Laedu Mill","Pibolre","ME","96342",""
"189","Thomas","Hammond","1258 Mumo Lane","Ogorutkef","TX","19442",""
"190","Addie","Sullivan","600 Fida Avenue","Ovafuufe","MI","1023",""
"191","Caleb","Smith","1821 Veujo Plaza","Unaidadog","SD","26462",""
"192","Christina","Ballard","1689 Fimaw Mill","Putnepkaw","MO","20670",""
"193","Lou","Holmes","1040 Figki Place","Ceenhe","DE","94279",""
"194","Cordelia","Owens","1771 Zekwek Avenue","Kotamlid","DE","42050",""
"195","Jessie","Simon","701 Karcis Plaza","Tagvaop","WI","80826",""
"196","Mollie","Hampton","114 Vaire Drive","Dibjedjim","DC","32334",""
"197","Dora","Dunn","1714 Uzlar View","Edcedu","KS","12391",""
"198","Frances","Mendoza","1631 Vawi Square","Vebzumsoz","KS","10893",""
"199","Hilda","Jones","920 Naspe Trail","Liimazoh","MN","40011",""
"200","Mable","McLaughlin","1380 Fisel Mill","Bifjaheg","UT","47419",""
"201","William","Dixon","1597 Rutlo Circle","Mocihik","IN","12279",""
"202","Devin","Quinn","1558 Papuw Square","Elololtu","NC","93968",""
"203","Willie","Leonard","1679 Mezcij Circle","Onuugauba","DC","86272",""
"204","Marvin","Hale","540 Iwdoj Glen","Rubafi","ND","55478",""
"205","Lora","Murray","1895 Nilkuz Avenue","Venisam","SD","89896",""
"206","Frances","Price","909 Hosa View","Wezupiv","AZ","20390",""
"207","Myrtle","Murphy","1129 Huzenu Avenue","Pokirgov","AZ","11601",""
"208","Elizabeth","Jackson","1169 Lurva Pass","Intejej","NC","48267",""
"209","Jeff","Scott","1521 Debvo View","Horonviz","OR","37993",""
"210","Leo","Jensen","287 Fuzraj Plaza","Ikbobe","NH","57725",""
"211","Connor","Norton","233 Gohces Circle","Zaviad","MI","4584",""
"212","Olga","Robertson","1148 Jibses Square","Keweumi","NM","35547",""
"213","Sara","Morrison","1733 Jawar Park","Rogomcig","KS","44750",""
"214","Leona","Ingram","365 Uwegib Road","Bukezcul","DE","4982",""
"215","Lawrence","Sutton","9 Megin Boulevard","Voiloceb","TN","67149",""
"216","Nettie","Sullivan","946 Orhor View","Razaepe","UT","81531",""
"217","Edith","Weaver","1301 Dafa Lane","Lanemivu","TX","63867",""
"218","Willie","Buchanan","162 Lalsak Lane","Taragih","MD","30772",""
"219","Ray","Cooper","1275 Joruj Junction","Dojsojuk","AL","67060",""
"220","Philip","Hernandez","458 Zentu Pike","Derijoovu","DE","64269",""
"221","Miguel","Richards","951 Fefhon Manor","Guknahcez","IA","56477",""
"222","Mamie","Vaughn","918 Ovre Heights","Toikbi","ND","72772",""
"223","James","Harvey","1504 Giwpic Pike","Tupgiwri","AL","99513",""
"224","Garrett","Wong","753 Bodzok Place","Doepilub","AR","59879",""
"225","Herman","Abbott","26 Geoj Key","Rubvimuk","NV","46783",""
"226","Jayden","Little","217 Janiv Path","Gekjaksi","AL","60548",""
"227","Larry","Mack","54 Ozatew Mill","Enaufjif","SC","47530",""
"228","Lucas","Keller","1439 Huwze River","Vurpekpe","VA","67289",""
"229","Katherine","Palmer","1887 Wutwo Square","Wecepu","ME","49329",""
"230","Stanley","George","1148 Uwugin View","Pugopet","MN","37089",""
"231","Daisy","Bates","1121 Ehfuf Turnpike","Pegdefari","MS","9810",""
"232","Blanche","Estrada","1658 Cera Trail","Obudba","IN","69410",""
"233","Ada","Lee","1670 Cacha Court","Oneiczom","IL","67249",""
"234","Shawn","King","623 Peta Junction","Zesoteka","AZ","76810",""
"235","Marc","Hines","1823 Gibuh Point","Sunorusi","AL","3771",""
"236","Emilie","Dunn","849 Dopheb Lane","Cumecdi","WI","78016",""
"237","Daniel","Schmidt","182 Bupic Trail","Iccaznud","NJ","26683",""
"238","Teresa","Lewis","1567 Dituce Highway","Lurajac","WV","24258",""
"239","Alta","Mason","1211 Hovfa Trail","Jumevi","WV","70308",""
"240","Roy","Garner","1882 Idehu Extension","Fogawra","ME","9341",""
"241","Isabelle","Griffin","1206 Ezasen Highway","Litgejla","MS","79540",""
"242","Ricky","Copeland","706 Duhes Street","Siazirip","MO","67973",""
"243","Andre","Harrison","299 Faoz Turnpike","Cueffur","TX","67775",""
"244","Rhoda","Nunez","56 Gikov Loop","Feubavav","WI","84260",""
"245","Violet","Bush","106 Heaco Extension","Apopaeti","FL","27459",""
"246","Stanley","Maxwell","613 Doale Loop","Ragobnuz","WV","97926",""
"247","Verna","Reeves","369 Dorlo Key","Nesusur","VT","95311",""
"248","Polly","Wise","1826 Zacuw Point","Acaveol","TX","43687",""
"249","Billy","Lawrence","1885 Zorve Manor","Budkula","FL","96381",""
"250","Phillip","Castro","834 Pigji Center","Ozfidmu","CT","11840",""
"251","Lola","Moore","1172 Pipkol Pike","Vupdukdu","NC","54164",""
"252","Ella","Horton","1455 Lurfo Way","Jitobpil","MN","57544",""
"253","Thomas","Porter","1458 Pozeze Street","Jidmuti","FL","12325",""
"254","Bertha","George","459 Reru Court","Gerojeh","VT","39756",""
"255","Alta","Patrick","1353 Eser Highway","Uniotujij","MN","83021",""
"256","Richard","Flowers","939 Vomka Grove","Towvagolo","OK","14038",""
"257","Anthony","Stone","656 Liwcug Lane","Vubbudmu","KS","96684",""
"258","Anthony","Powers","1159 Sehkuz Ridge","Cadoktes","RI","93258",""
"259","Eric","Greer","17 Acaze Point","Lopeleb","TX","84506",""
"260","Kenneth","Harvey","1044 Ovpuv Path","Guffiic","NM","64012",""
"261","Walter","Porter","861 Ejmo Extension","Tosopki","ID","62208",""
"262","Beulah","Swanson","460 Vuljal Key","Gejulfop","FL","36374",""
"263","John","Rowe","1912 Eldo Terrace","Jegawmo","IA","60366",""
"264","Bettie","Dixon","69 Gifnem View","Nugesur","MA","75833",""
"265","Keith","Jenkins","613 Bocwaj Plaza","Mezelwez","KY","85088",""
"266","Myrtle","Conner","403 Owava Square","Idobolses","ME","39954",""
"267","Jeff","Meyer","328 Metta Avenue","Zotzeju","SC","74537",""
"268","Minnie","Rodriquez","1255 Siphu Path","Wiluwvo","VT","704",""
"269","Cory","Bridges","1512 Udubok Center","Jozeapa","NJ","23731",""
"270","Luke","Weber","1334 Nibab Manor","Azbage","LA","58854",""
"271","Eva","Fisher","1609 Guron Drive","Emjiwbi","AK","38854",""
"272","Addie","Hale","1869 Sudgeg Junction","Doamazu","TX","19662",""
"273","Landon","Perez","1727 Tikev River","Dolwozmif","KY","84583",""
"274","Tom","Bell","1627 Nimsev Pike","Hegmevma","SD","46153",""
"275","Helena","Brooks","313 Fiken Highway","Ditsawme","NY","73100",""
"276","John","Rivera","907 Ecwas Terrace","Rovotadeg","SC","26984",""
"277","Leona","Miller","98 Gorda Place","Hicijodih","CT","23593",""
"278","Larry","Roy","1395 Etaj Way","Dijeglob","AK","29090",""
"279","Alma","Jefferson","1614 Kepu Manor","Kagiwzo","SD","16829",""
"280","Matthew","Baldwin","1250 Gelrig Mill","Dofjuhadi","MT","82719",""
"281","Cole","Cobb","457 Utke Center","Waswihi","PA","30819",""
"282","Adam","Casey","791 Ibhe Park","Terseiv","OK","92214",""
"283","Herbert","Cummings","719 Ekubof Glen","Sokvekaf","ND","28411",""
"284","Ophelia","Cohen","242 Feik Glen","Cewizure","ID","73236",""
"285","Georgia","Stewart","450 Hukag Road","Jaguebo","DC","34220",""
"286","Eliza","Leonard","958 Jaros Grove","Befahec","SD","82439",""
"287","Nellie","Davidson","1051 Unhaf Pike","Kigigke","WI","79626",""
"288","Lou","Floyd","760 Lager Plaza","Cehupvi","ND","64204",""
"289","Jeffrey","Castro","1521 Ewvus Boulevard","Gahevvir","RI","91156",""
"290","Nancy","Erickson","1868 Jowo Ridge","Zucijes","TX","90307",""
"291","Agnes","McKinney","1422 Uhgim Boulevard","Fotjovuh","AR","43542",""
"292","Blake","Phillips","1590 Hezom Mill","Aspute","AL","62459",""
"293","Jayden","Hughes","1299 Igael Plaza","Sekeawo","TN","71443",""
"294","Todd","Bell","1795 Sazu Square","Ojihuki","WV","67912",""
"295","Eric","Burton","406 Ehba Highway","Ogubiidi","DE","96862",""
"296","Benjamin","Cooper","73 Meoj Pike","Udihubiz","CO","72734",""
"297","Gene","Santos","1203 Woptab Drive","Womohofo","GA","33021",""
"298","Helen","Santos","1599 Cuzoge Turnpike","Zidined","OK","12206",""
"299","Nathaniel","McCarthy","1996 Lohat Street","Bascapjed","CT","775",""
"300","Lora","Patterson","1860 Pemub Court","Hilidumec","NJ","46588",""
"301","Johanna","Sims","1726 Bihi Circle","Gatuak","FL","10565",""
"302","Fannie","Benson","1766 Vobegi Junction","Vusraga","FL","78835",""
"303","Jerome","Collins","987 Vepeg Parkway","Zugamoso","NJ","7744",""
"304","Floyd","Vaughn","880 Moapo Mill","Vowijosus","TN","82169",""
"305","Dora","Joseph","1341 Wuce Boulevard","Ozecolum","NE","79118",""
"306","Wesley","Howard","1214 Fifnil Court","Doudhez","DE","52252",""
"307","Nell","Valdez","1978 Jirab Terrace","Ujairwi","WY","32120",""
"308","Frank","Spencer","351 Cizoru Highway","Lumtudela","TN","41794",""
"309","Annie","Anderson","32 Vibli Parkway","Teufira","MA","10855",""
"310","Lawrence","Tran","1763 Bejo Drive","Mimimom","NM","19908",""
"311","Nannie","Richardson","653 Lasu Place","Meffafi","GA","74883",""
"312","Philip","Spencer","1591 Tucfo Manor","Hevodnov","TN","94289",""
"313","Inez","Bailey","1953 Helab Turnpike","Zokpiti","MT","23871",""
"314","Luella","Hernandez","606 Ijro Turnpike","Guhuca","CO","54009",""
"315","Ada","Miles","1496 Egsu Pike","Anlansaj","IL","4299",""
"316","Louise","Reynolds","1784 Punof Junction","Hukiheh","HI","85282",""
"317","Mittie","Powell","429 Eppo Square","Kizauz","NY","5524",""
"318","Noah","Webster","578 Dikin Extension","Ejjohu","GA","70745",""
"319","Norman","Byrd","1989 Fuek Square","Vidurik","NE","12249",""
"320","Dale","Taylor","494 Coneko Parkway","Ejacumu","VA","66170",""
"321","Gordon","Haynes","683 Lolme Highway","Ciwrahu","DC","31556",""
"322","Eleanor","Baker","761 Kivace Manor","Zivpena","AR","98270",""
"323","Hulda","Matthews","816 Ehcew Heights","Bojebo","MT","16521",""
"324","Melvin","Wise","1833 Nanig Parkway","Ofvultac","DE","91483",""
"325","Florence","Summers","55 Hagad Path","Tazosem","NH","89952",""
"326","Katharine","Graham","513 Gezne Loop","Wigveaz","ND","28812",""
"327","Edward","Harper","1849 Bijat Square","Uworigsul","FL","73620",""
"328","Jerome","Christensen","1211 Nulen Turnpike","Evikame","MS","63756",""
"329","Michael","Johnson","193 Bomec Parkway","Saklalok","SD","93387",""
"330","Isabella","Walters","680 Mafev Pike","Sobehapen","WY","18125",""
"331","Evelyn","Elliott","41 Omuge Highway","Puvgultu","MO","82577",""
"332","Lillie","Austin","1045 Ojuci Boulevard","Pehuried","WI","93689",""
"333","Henry","Vasquez","1351 Coesu Glen","Tefbuvuw","TN","8293",""
"334","Matilda","Edwards","773 Membuw Plaza","Inapuble","MI","59461",""
"335","Lilly","Black","833 Ezcef Way","Metgeti","GA","11286",""
"336","Alberta","Massey","22 Roogi Center","Jicinsu","NY","22455",""
"337","Fanny","Willis","701 Zopzah Street","Gabapu","DC","36140",""
"338","Elizabeth","Riley","1982 Vicuz Manor","Ritnodga","LA","65678",""
"339","Calvin","Wise","1959 Tiri Way","Ekiboru","DE","55159",""
"340","Luke","Stanley","1759 Lubij Mill","Gaabsi","ND","55703",""
"341","Sam","Watts","937 Umbed Drive","Ajbuzpu","DC","69248",""
"342","Edgar","Morgan","76 Nugga Key","Hotresfaj","SC","71095",""
"343","Iva","Bowen","1646 Edoso Boulevard","Libnune","NJ","88451",""
"344","Leila","Schneider","1550 Midbe Manor","Ihufaeji","KY","44702",""
"345","Steve","Singleton","370 Culud Loop","Ijakejad","AR","79016",""
"346","Matthew","Miles","845 Kigfuk Lane","Enetikif","CO","9966",""
"347","Theodore","Montgomery","1933 Jazzak Drive","Lavnujej","MA","54783",""
"348","Hattie","Ryan","1769 Reshej Loop","Dihumuh","MA","79846",""
"349","Phillip","Curtis","893 Fihe Drive","Egkuumo","TN","65448",""
"350","Logan","Logan","228 Virofi Trail","Bawgegef","MN","81353",""
"351","Clayton","Wolfe","646 Vezsiz Circle","Dosihmaj","PA","18007",""
"352","Andrew","Lamb","216 Gujwir Path","Fudkupapi","PA","59321",""
"353","Jay","Hart","1488 Kape Road","Atiwoma","IN","64998",""
"354","Nina","Miles","877 Sueci Parkway","Rortieg","VA","73526",""
"355","Miguel","Adams","671 Ludav Boulevard","Bimdoog","MT","55756",""
"356","Tony","Gúzman","537 Utoafi Ridge","Jutazfo","NV","98305",""
"357","Carl","Allen","1924 Iruibu Pass","Pubilo","NY","10926",""
"358","Susie","Carroll","1036 Vomo Grove","Sicveot","VA","61438",""
"359","Frank","Santos","1151 Atimab Circle","Sobbonhe","AK","68402",""
"360","Barry","McCoy","1395 Higle Court","Gemiru","GA","6258",""
"361","Jennie","Cain","1824 Ebmub Extension","Jepmarhi","RI","75871",""
"362","Brent","Little","968 Puffe Lane","Ibizupdav","OK","74494",""
"363","Winnie","Pena","130 Vefal Lane","Silivev","MD","21286",""
"364","Birdie","Hardy","667 Azejej Loop","Masorlib","CA","39877",""
"365","Hilda","Norman","1328 Ziah Junction","Pisojdod","CO","69394",""
"366","Jerry","Wood","627 Gabom Highway","Joskopvat","NC","24389",""
"367","Phillip","Hoffman","388 Cofub Lane","Afiljij","ID","61329",""
"368","Brett","Dunn","1258 Fasor Drive","Idedeknis","AL","73137",""
"369","Milton","Abbott","44 Baac Extension","Alceis","TX","45280",""
"370","Franklin","Holloway","783 Woec Place","Naruwgo","MI","64579",""
"371","Rosetta","Page","1580 Ihpuw Mill","Mefagege","NY","44124",""
"372","Anne","Farmer","342 Coparu Path","Cikicvim","CT","76050",""
"373","Juan","Graves","921 Vaspo Extension","Tesuza","RI","49021",""
"374","Alta","Lawson","852 Osbi Terrace","Ikizaduz","NV","28003",""
"375","Lester","Huff","731 Kobev Lane","Seknebgad","PA","18366",""
"376","Manuel","Walters","1048 Pudup Key","Hokothof","ME","12598",""
"377","Francis","Powers","1918 Ajeuba Street","Wadtijej","CT","94180",""
"378","Sarah","Garza","1586 Ewaup Mill","Megovse","MO","69962",""
"379","Jack","Francis","1171 Ejila Center","Alajipnu","MD","59454",""
"380","Georgia","Barnett","209 Waper Manor","Vuwohbod","SD","29418",""
"381","Allen","Kennedy","1898 Urena Heights","Bepowem","AL","69946",""
"382","Amelia","Robbins","384 Zehev Court","Pawafot","WI","60290",""
"383","Hallie","Ortega","1690 Evbi Pass","Duwpirga","NM","85801",""
"384","Jeanette","Fields","1242 Bebo Boulevard","Efwolbi","MA","26397",""
"385","Jane","Norman","1008 Wehtoh Loop","Bonowzaj","MS","4499",""
"386","Marion","Garrett","961 Deeke Trail","Gedehi","MA","22319",""
"387","Lawrence","Rose","1981 Zewa Park","Ajbopfo","UT","50465",""
"388","Timothy","Norton","224 Sosoc Circle","Ijabutfuc","IN","14627",""
"389","Stephen","Steele","941 Nupef Way","Imkurtu","WA","74412",""
"390","Isaiah","Lambert","890 Madbiz Way","Waflorim","NE","28660",""
"391","Victoria","Cortez","1387 Piec Loop","Citobe","WV","76753",""
"392","Viola","Adams","342 Wimu Way","Ledafimup","HI","5271",""
"393","Sarah","Jennings","334 Kostaf Place","Paledej","SD","9076",""
"394","Lawrence","Santos","1775 Pateb Key","Vuoljic","OR","95195",""
"395","Jonathan","Brock","34 Ehbap River","Moeplet","CA","8946",""
"396","Logan","Holt","1420 Divu Key","Mamfegi","WA","41318",""
"397","Miguel","Reid","1922 Sudbi Lane","Mifneka","PA","70678",""
"398","Helen","Nichols","273 Rekew Way","Corunu","IA","48431",""
"399","Max","Walton","1094 Bagno Street","Apauhda","LA","39124",""
"400","William","Hoffman","908 Mecga Turnpike","Rarusef","SD","85266",""
"401","Gregory","Doyle","124 Ikeuza Manor","Ogigupbuc","ME","673",""
"402","Edgar","Day","292 Duec Court","Elohattep","PA","52209",""
"403","Johnny","Baldwin","594 Sojuz Lane","Dajsenko","MS","93189",""
"404","Ivan","Gordon","1085 Jawsoz Manor","Juddowal","MN","81566",""
"405","Ora","McCarthy","1162 Monuz Trail","Vojemi","NE","94386",""
"406","Arthur","Duncan","118 Ojmic Street","Upwehi","NM","47981",""
"407","Francis","Clayton","195 Amiahu Mill","Elumethav","MO","35969",""
"408","Mildred","Roberson","1849 Mohez Pike","Rijhawjom","AZ","27251",""
"409","Barbara","Frazier","1536 Vosilu Heights","Ciwolucis","OR","32085",""
"410","Adam","Valdez","88 Paero Glen","Pubulta","NH","90291",""
"411","Timothy","Banks","1918 Narow Court","Varsole","IN","33793",""
"412","Derrick","Estrada","1955 Muga Way","Rokvijgog","NJ","62861",""
"413","Keith","Chapman","958 Jisa Path","Naliku","UT","91188",""
"414","Jack","Hudson","1036 Fekvu Parkway","Luhisal","KS","59352",""
"415","Sue","Murphy","1746 Moef Pass","Ukihurur","ND","30197",""
"416","Bobby","Osborne","1334 Ivca Plaza","Inuwajal","GA","32995",""
"417","Stella","Bradley","784 Waipo Center","Ofuhisrol","TX","76455",""
"418","Jon","Henry","507 Hunfe Place","Kezkacug","FL","59049",""
"419","Gordon","Hunter","673 Piho Lane","Pukiic","UT","30217",""
"420","Marie","Clarke","224 Kojjij Way","Telahizi","TN","97124",""
"421","Clayton","Bennett","691 Casap Street","Bifiwi","ME","29639",""
"422","Christopher","Jacobs","1678 Iklo Point","Nezueda","ME","81396",""
"423","Jane","Coleman","818 Zolih Pike","Zivonfe","NJ","67743",""
"424","Joshua","Clayton","819 Ekaf Point","Suribosi","NM","98002",""
"425","Isaac","Rowe","105 Amfaz Plaza","Vismewez","AZ","7395",""
"426","Ronald","Brady","1259 Daknu Mill","Edupeahi","KY","7585",""
"427","Georgia","Bennett","688 Vosa Ridge","Uwtohhu","WY","31492",""
"428","Ralph","Frazier","1867 Ikiwol Boulevard","Ecgacwi","WA","93046",""
"429","Dominic","Watkins","1105 Afazo Avenue","Tojjodudu","VA","13035",""
"430","Jennie","Bates","1223 Betoce Mill","Ovrufac","MS","65382",""
"431","Rodney","Soto","1036 Obeso View","Mesiscu","WA","41859",""
"432","Mario","Carr","168 Vusto Plaza","Lovrefol","VT","43183",""
"433","Christian","Nash","427 Idoful Way","Wavkaze","KS","90010",""
"434","Bess","Howell","494 Mocad Center","Ahzabbo","MO","12554",""
"435","Noah","Allen","573 Lotgo Parkway","Zibezujuf","ME","34182",""
"436","Erik","Henderson","1744 Eteos Highway","Zikuvguj","MO","10644",""
"437","Eula","Gibson","1903 Hicnu Point","Redufeak","MO","96876",""
"438","Jesus","Powers","802 Fohho Manor","Dogekol","UT","22580",""
"439","Hunter","Mitchell","279 Erifev Circle","Ewuoweuke","GA","61547",""
"440","Verna","Pena","612 Ofruv Avenue","Revizcot","MO","51905",""
"441","Nina","Lambert","1914 Ubke Terrace","Huflodfa","NV","77607",""
"442","Gary","Kim","42 Merdep Terrace","Padvucje","IL","87748",""
"443","Christian","Cortez","1924 Iresil Park","Zegajhi","OR","27840",""
"444","Chester","Bell","1961 Libuja Turnpike","Hodhezek","PA","34327",""
"445","Gary","Morrison","509 Fospo Way","Pejikpo","GA","36215",""
"446","Aiden","Fletcher","501 Bewu Loop","Derrejil","RI","16916",""
"447","Warren","Richardson","1331 Zahgaz Trail","Enuceje","ID","7972",""
"448","Sarah","Strickland","138 Belhil Extension","Ujejusir","CA","54619",""
"449","Jason","Allen","68 Podej Glen","Tosjudle","SC","92278",""
"450","Don","Montgomery","976 Uzeipe Plaza","Fizwumma","GA","35281",""
"451","Sean","Mendez","494 Sakat Glen","Juwvumob","WV","28572",""
"452","Mattie","Mathis","1453 Gefo Court","Wuledaf","MI","45138",""
"453","Ola","Porter","226 Wivze Way","Lowzitoh","LA","72623",""
"454","Teresa","Hale","50 Heri Grove","Kaknebec","OH","96554",""
"455","Wayne","Medina","1162 Aluwis Lane","Maurwuv","NE","34199",""
"456","Harry","Collier","1695 Vozo Grove","Azgoel","ND","8340",""
"457","Amelia","Erickson","1764 Daga Avenue","Wefokju","IL","66546",""
"458","Seth","Sherman","305 Zufa Circle","Wuhesola","CA","81810",""
"459","Daisy","Patrick","1507 Ecawa Avenue","Nisnomju","IN","15821",""
"460","Martha","Patterson","932 Wanwe Road","Pifbizjur","SC","22772",""
"461","Sadie","Baker","1410 Fuzwos Pike","Muetitut","GA","40081",""
"462","Larry","Newman","603 Fibe Path","Sahimo","AK","75248",""
"263","Steve","Neal","1711 Dekib Heights","Berbatpig","ME","11529",""
"464","Marion","Rodgers","1443 Ervo Junction","Pekaadi","IN","69416",""
"465","Lenora","Thomas","1626 Zitid Mill","Jiocegev","ND","72198",""
"466","Daniel","Hogan","726 Natap Manor","Fidaroozi","PA","89044",""
"467","Theresa","Lopez","1845 Feama Pass","Dimahar","CT","27936",""
"468","Violet","Marshall","1845 Woheh Trail","Hevafiw","MN","75582",""
"469","Eugenia","Banks","1106 Duin Glen","Etjozel","NH","47157",""
"470","Mario","Dean","147 Nakce Place","Ikewuwlu","VT","46119",""
"471","Jackson","Neal","1054 Ezsu Parkway","Wicraago","NV","9675",""
"472","Georgia","McCormick","1447 Cucgef Street","Kovajwum","AL","42829",""
"473","Bobby","Keller","323 Guja Pass","Vomruus","KS","11139",""
"474","Bill","Perry","882 Bavaf Turnpike","Aznagsob","HI","75460",""
"475","Jerome","Marshall","1351 Nuraz Junction","Pegjorbuj","CT","36613",""
"476","Lola","Logan","310 Ehba Pass","Weegke","NM","87631",""
"477","Austin","Lynch","983 Uhone View","Inzaih","TX","71144",""
"478","Isaiah","Jacobs","190 Lumve Path","Koubuda","ND","79922",""
"479","Mollie","Sanders","1381 Amajir Pike","Womzoshoc","AR","12667",""
"480","Maud","Reese","409 Zojijo Extension","Kaacuwu","WI","3827",""
"481","William","Woods","1512 Ajuezi Circle","Titupip","VA","34835",""
"482","Herman","Adkins","610 Vobza Street","Pujdobo","IA","14313",""
"483","Bertie","Nash","13 Nenlo River","Wuprevela","CA","63434",""
"484","Connor","Padilla","1922 Foiva Parkway","Sosjukba","MD","97630",""
"485","Jesse","Hubbard","1934 Fovlo Turnpike","Cuikogot","CO","61853",""
"486","Charlie","Boone","925 Face Street","Ubogandob","AZ","14286",""
"487","Thomas","Murphy","1860 Afezub Center","Ahucifol","WA","51568",""
"488","Harvey","Morales","723 Kaaj Court","Bibifo","WA","8339",""
"489","Angel","Lawrence","1060 Moveme Loop","Gomhuvbas","FL","55581",""
"490","Birdie","Fletcher","303 Zuse Street","Zakobnun","SD","40861",""
"491","Alta","Blake","843 Nipjut Heights","Topize","ID","40715",""
"492","Adam","Blair","1078 Picil Lane","Asmoevi","GA","44612",""
"493","Jerry","Morris","1407 Sodra Park","Tojuni","VT","55491",""
"494","Eunice","Colon","1834 Zokgup Street","Voerobuz","GA","25417",""
"495","Edgar","Stanley","1994 Giksev Center","Ofealawe","MD","151",""
"496","Margaret","Graham","1462 Cead Manor","Vowuam","FL","80622",""
"497","James","Erickson","1199 Konciz Glen","Ukubair","OH","68653",""
"498","Vernon","Reed","167 Ilil Junction","Awenoksid","AR","66570",""
"499","Callie","Morrison","334 Buzapo Point","Ebuamhi","OH","70073",""
"500","Eugene","Warren","1325 Ilezos Place","Cuptoufo","MO","19442",""
"501","Effie","Ortiz","137 Fegzob Place","Pukiber","CT","47743",""
"502","Isabel","Nelson","1071 Numa Park","Hewrafa","KS","10325",""
"503","Violet","Floyd","1621 Wifho Path","Itgowroh","CO","76329",""
"504","Jack","Aguilar","1532 Fabalu Plaza","Hututu","SD","25433",""
"505","Eula","Gonzales","469 Vacala Pass","Uvojoge","ME","14840",""
"506","Scott","Barker","1380 Obja Park","Ligunar","CT","70291",""
"507","Loretta","Beck","870 Deuf Loop","Lejlous","CO","63251",""
"508","Essie","Chapman","238 Erfef Park","Usepaoh","GA","80102",""
"509","Sam","Dawson","685 Kimza Ridge","Dirubfu","MO","53917",""
"510","Lilly","Johnston","1678 Kafjoz Parkway","Puhbawle","SC","94733",""
"511","Maurice","Hart","1022 Ziwu Trail","Dodkukid","TN","44820",""
"512","Brian","Little","498 Umiwu Glen","Fubajif","NJ","66570",""
"513","Willie","Long","194 Rebar Boulevard","Moferfo","WA","58094",""
"514","Peter","Greer","1562 Zebe Road","Korgaepi","MT","30119",""
"515","Pearl","Gilbert","224 Ikmih Heights","Bufsuwsor","HI","69629",""
"516","Jesse","Doyle","1727 Beuzi Lane","Amaejokuw","OK","94388",""
"517","Dale","Joseph","1252 Gorez Extension","Coosno","AK","4344",""
"518","Betty","Jacobs","1432 Juwjip Mill","Senuvuc","MI","84980",""
"519","Pearl","Warren","895 Utefe Court","Tadduruj","NM","50591",""
"520","Mollie","Ball","873 Inle Lane","Zeptadur","AL","22802",""
"521","Allen","Sims","212 Hino Park","Ucabozdab","MI","55636",""
"522","Myrtie","Jimenez","933 Ifvow Avenue","Podiaj","PA","53142",""
"523","Max","Hardy","1571 Surci Circle","Lioduno","NV","76648",""
"524","Hunter","Vasquez","230 Cefme Turnpike","Lulifha","VT","98102",""
"525","Amy","Lamb","610 Loshos Junction","Jiscohluh","NM","99984",""
"526","Phillip","Swanson","1035 Irutoj Glen","Limdihcuk","AZ","59950",""
"527","Amanda","Cox","145 Hewbi Trail","Sisfeva","VA","37119",""
"528","Timothy","Meyer","836 Ihali Plaza","Raweduv","HI","48594",""
"529","Amy","Mathis","1022 Purure Terrace","Miwopli","PA","11629",""
"530","Catherine","Scott","1759 Livro Park","Ernupic","OK","49637",""
"531","Henrietta","Fletcher","1334 Lejro Avenue","Ojejatho","NE","95429",""
"532","Bess","Stevens","1354 Kure Junction","Kalnihhik","NY","86725",""
"533","Vera","Padilla","541 Igdi Square","Laofunej","SD","1155",""
"534","Henry","Chandler","224 Duih Ridge","Kolelle","NM","63704",""
"535","Ethan","Fox","213 Sufi Grove","Kamoheb","WY","98915",""
"536","Rosetta","Nguyen","336 Tarle River","Raromko","NM","55834",""
"537","Lawrence","Walton","349 Ojonu Street","Miuzeb","NY","11881",""
"538","Lilly","Willis","892 Ehtup Key","Satawow","NJ","53054",""
"539","Fred","King","285 Curpeb Pass","Igjibko","IL","30335",""
"540","Charlotte","Dixon","954 Rawti Street","Magbethuh","IA","71791",""
"541","Jerry","McCoy","955 Acaz Junction","Minepuli","NC","79384",""
"542","Jeanette","Garcia","1148 Kadul Extension","Pupuke","NC","36912",""

"543","Addie","Andrews","610 Karbih Trail","Kigoli","AR","70051",""
"544","Oscar","Paul","1401 Wija Turnpike","Enusapnu","PA","36322",""
"545","Hunter","Brown","53 Riso Avenue","Necigmi","NJ","5687",""
"546","Bobby","Welch","1561 Pisur Grove","Bogibi","MN","23039",""
"547","Isaiah","Rose","1943 Evvog River","Pasjarha","MN","33911",""
"548","Brian","Yates","1422 Ipko Turnpike","Lisuldos","MT","89520",""
"549","Bobby","Gutierrez","855 Pozhac Path","Dasanut","TX","26358",""
"550","Augusta","Schultz","609 Heogo Circle","Nonuca","IA","82465",""
"551","Sylvia","Spencer","316 Ellu Junction","Sibzaoc","ID","12760",""
"552","Maurice","Johnson","1449 Mobu Junction","Mipupi","NC","93805",""
"553","Henrietta","Kennedy","432 Mola Terrace","Ihpimdo","MT","26729",""
"554","Helena","Carson","1687 Cosip Point","Uwouduni","ID","58523",""
"555","Travis","Jenkins","446 Vioc Turnpike","Pummazzi","TX","83567",""
"556","Jean","Cain","1786 Fouru Pass","Dadmirot","NV","31501",""
"557","Rosie","Banks","770 Ikaguv Center","Icrifa","NV","60436",""
"558","Stephen","Larson","219 Olone Junction","Epnunu","KS","99654",""
"559","Nora","Jacobs","1280 Beme Grove","Lagaffub","MN","89256",""
"560","Minerva","Abbott","1660 Nala Grove","Telahzo","IN","84603",""
"561","Jeffrey","Bryant","1006 Sujaka Avenue","Nurunhah","AL","210",""
"562","Pearl","Rodgers","220 Edeif Glen","Fuhpose","WA","55114",""
"563","Sarah","Black","1101 Purre Mill","Luhlufel","LA","28197",""
"564","Fannie","Crawford","889 Jaci Key","Wubawezuv","DC","17111",""
"565","Rachel","Watkins","107 Asaala Trail","Kogawukep","ME","38830",""
"566","Clarence","Hanson","1186 Labvi Key","Lukilnez","AL","37103",""
"567","Lydia","Hamilton","782 Emukoh River","Agauwpu","AR","52358",""
"568","Lettie","Brown","803 Femfoh Square","Zucapokuc","KY","90667",""
"569","Alvin","Carr","173 Suzum Place","Miceaf","IL","62750",""
"570","Lela","Pratt","147 Muzjas Parkway","Nuguuh","KS","16919",""
"571","Justin","Thornton","363 Lucjaw Loop","Focizos","WV","414",""
"572","Mason","Todd","955 Irbe River","Dajefig","VT","33924",""
"573","Pauline","Maldonado","426 Bumjas Loop","Tibipwic","OK","8891",""
"574","Polly","Lamb","1042 Hile Trail","Gujehza","FL","47398",""
"575","Joshua","Greene","177 Gubmud Junction","Jurkido","DE","20931",""
"576","Eugenia","Allen","422 Bezbe Parkway","Covvajak","MS","24823",""
"577","Olga","Cohen","1992 Evtek Path","Tebojpi","DE","97722",""
"578","Ricardo","Hall","618 Isdem Pass","Nasdoduf","IA","24974",""
"579","Leon","Allison","749 Lisemu Highway","Fobcupe","DE","70174",""
"580","Winifred","Jensen","521 Upuda Lane","Cipzumito","IL","60305",""
"581","Fred","Saunders","892 Doji Parkway","Goobuka","DC","78186",""
"582","Barry","Gill","1849 Kanev Place","Kighedoso","MN","45463",""
"583","Loretta","Joseph","1668 Sudac Place","Vubinva","LA","8392",""
"584","Bertha","Cunningham","1250 Vowkem Lane","Simpurdet","MN","73132",""
"585","Alan","Mitchell","415 Durbez Drive","Ekiwupa","DC","83988",""
"586","Leona","Boyd","1740 Tetwu Glen","Najile","KS","94417",""
"587","Gerald","Padilla","905 Zimli Court","Rakewja","TN","45258",""
"588","Ida","Silva","913 Melso Boulevard","Hakgevcuw","TX","83731",""
"589","Lettie","Castro","1730 Pindu Ridge","Ihcubgal","VA","8523",""
"590","Hunter","Norton","212 Ukicu Loop","Abotavgof","MS","85543",""
"591","Maud","Holt","1468 Ikiza Plaza","Zevvejur","NV","78395",""
"592","Harvey","Lambert","135 Atape Ridge","Hokbedi","WI","36985",""
"593","Caroline","Hale","679 Wavwur Street","Vutunos","PA","1787",""
"594","Jeanette","Martinez","1560 Miomo Ridge","Megapoce","MO","9304",""
"595","Aiden","Nichols","1526 Lufu Grove","Tihurgaz","WY","69626",""
"596","Hilda","Gutierrez","885 Kascuj Square","Voezewi","ID","29936",""
"597","Jeff","Vega","338 Lucvat View","Popvaluw","AL","79432",""
"598","Joel","Ferguson","982 Lorni Pike","Vathubka","AZ","6417",""
"599","Lester","Wells","300 Kehog Boulevard","Utisuaco","HI","99702",""
"600","Cecilia","Simpson","244 Lizmek Park","Bififna","MT","92341",""
"601","Julia","Baker","112 Pouf Heights","Avwihad","NC","76903",""
"602","Verna","Johnson","1257 Govve Turnpike","Nenijas","MO","89302",""
"603","Robert","Adkins","123 Gijiwi Center","Divujjul","WA","4923",""
"604","Isabelle","Duncan","1283 Jobel Manor","Cavopuzis","AR","61470",""
"605","Jeanette","Cohen","1623 Vebhu Circle","Gopodukiw","DC","67751",""
"606","Hattie","Rodriquez","1143 Aguno View","Ewiewocu","NM","42982",""
"607","Marvin","Griffin","1580 Jovus Glen","Zissegol","MD","85373",""
"608","Anne","Fowler","341 Osge Terrace","Utnaco","KS","66782",""
"609","Mae","Zimmerman","1084 Ducah Path","Olufufrin","KS","25263",""
"610","Mittie","Cox","530 Vuvreh Parkway","Cancete","OK","53732",""
"611","Jimmy","Perez","141 Hufo Court","Zuniim","FL","93",""
"612","Jay","Garza","623 Alfeh Parkway","Dejides","MD","38723",""
"613","Isabelle","Gomez","1827 Cobe Junction","Pancepu","SC","91851",""
"614","Douglas","Nunez","929 Nurup Highway","Fofkozaw","AZ","3685",""
"615","Adele","Norton","1296 Sadba Avenue","Toparoez","AR","95253",""
"616","Alberta","Lyons","412 Havim Highway","Tencehi","OK","52555",""
"617","Russell","Hodges","539 Kawan Road","Turesouf","NJ","402",""
"618","Eliza","Richardson","1099 Haleno Junction","Wovravon","UT","57874",""
"619","Mabelle","Gray","126 Getvoz Glen","Voduwcar","ND","85205",""
"620","Katie","Chandler","540 Helav Boulevard","Budavet","VT","92228",""
"621","Jennie","Santiago","1995 Sufzan Glen","Wakici","SD","80006",""
"622","Caroline","Thomas","426 Bimus Highway","Riulka","IA","19836",""
"623","Troy","Knight","1889 Gecu Path","Esmotket","MO","73948",""
"624","Lydia","Norman","31 Nonun View","Neijto","AZ","43725",""
"625","Carrie","Caldwell","1989 Cusa Grove","Citujo","AZ","19856",""
"626","Matilda","Stokes","45 Hicu Glen","Nedruze","ID","20045",""
"627","Jesus","Welch","1563 Jibvi Avenue","Dufasi","TN","78893",""
"628","Bryan","Gibbs","574 Suto Loop","Juifho","ND","49735",""
"629","Adele","Cook","1522 Fegop Court","Ucaiwrur","MS","69732",""
"630","Edith","Fields","1968 Etfo Grove","Peredca","CT","21677",""
"631","Joshua","Hart","1325 Avihe Road","Pemeoh","MD","40744",""
"632","Alvin","Frazier","180 Afpaz Park","Jejlohi","WI","47825",""
"633","Anne","Chambers","225 Nevif Turnpike","Kapojiru","ND","77139",""
"634","Jeremiah","Rhodes","1852 Jinur Junction","Rohluavi","KS","19143",""
"635","Irene","Cohen","481 Danfa Mill","Awekjo","ND","59174",""
"636","Lettie","Keller","772 Fefru Drive","Valhodim","OK","41174",""
"636","Margaret","Arnold","1990 Pibod Parkway","Wihidete","TN","54529",""
"638","Mabel","Gúzman","1032 Bevol View","Adrufvog","WV","2927",""
"639","Zachary","Jackson","186 Usibe Avenue","Ogovohhal","MD","64361",""
"640","Nancy","Ortiz","730 Pafos View","Azekirhu","LA","94643",""
"641","Jay","Frazier","600 Ezuaci Junction","Dagajga","OR","36023",""
"642","Amanda","Oliver","1062 Jamca Plaza","Wuzkacfuz","AZ","84203",""
"643","Nora","Morgan","1554 Mofa Mill","Cuzjewa","WA","69576",""
"644","Floyd","Sullivan","1591 Iwap Extension","Upialose","SD","78358",""
"645","Blanche","Parsons","1945 Pica Way","Casosi","UT","44846",""
"646","Ralph","Mendoza","1902 Derus Court","Cewotedo","DC","39709",""
"647","Jacob","Vargas","937 Devvat Street","Depahok","IL","62996",""
"648","Lenora","Blake","1374 Gifo View","Vaufpol","NH","64744",""
"649","Dominic","Cohen","190 Gahruc Turnpike","Nuvoggo","UT","65341",""
"650","Brent","Obrien","1433 Ruhgo Heights","Opoaknul","HI","41171",""
"651","Georgia","Flores","479 Sabul Place","Cobukunom","MT","57091",""
"652","Marian","McDaniel","700 Eduk Pass","Posake","TN","5054",""
"653","Lenora","Curry","411 Neif Plaza","Bijduuv","NE","43012",""
"654","Darrell","Gross","1132 Lave Circle","Rupviva","MN","5410",""
"655","Glenn","Pope","346 Rukut Glen","Rubjavbef","HI","6887",""
"656","Leona","Torres","1098 Isimu River","Kebniheb","OR","41565",""
"657","Agnes","Fowler","1836 Gatuw Key","Irifikpuc","MA","85367",""
"658","Andre","Robertson","1366 Jakpu View","Vimzajwof","NH","6316",""
"659","Jim","Rice","1223 Biub Pass","Licopa","NH","52619",""
"660","Ronnie","Shelton","1481 Huwed Loop","Gemwerca","NH","17724",""
"661","Harry","Clarke","998 Izveh Way","Ozorowgan","GA","45103",""
"662","Lela","Wong","1290 Jodmo Highway","Ikuzomec","CA","4881",""
"663","Andrew","Clarke","194 Dulal Parkway","Pahakov","MI","72975",""
"664","Louise","Love","1505 Rofos Center","Wirazuk","OH","74911",""
"665","Patrick","Cummings","253 Zedu Road","Gadjahwuv","ND","17900",""
"666","Minnie","Goodwin","1213 Sofok Loop","Vilodto","MA","51971",""
"667","Louis","Dean","1999 Zomjed Mill","Inpozcel","AZ","97793",""
"668","Lillian","Henderson","1605 Ozvef Turnpike","Siscimopi","VA","62210",""
"669","Winifred","Ryan","821 Podo Boulevard","Herepfut","HI","29492",""
"670","Alfred","Burke","1665 Peef Place","Liowugev","RI","79318",""
"671","Aaron","Weaver","1612 Giidi Highway","Pufijvaw","WA","12961",""
"672","Chris","Cruz","834 Moza Grove","Eltatpir","MA","38784",""
"673","Aaron","Silva","1736 Piimu Parkway","Vopiave","DE","91827",""
"674","Annie","Grant","523 Jirod Square","Olhara","LA","41996",""
"675","Marguerite","Cox","962 Wizpod Drive","Afuipotij","VA","17212",""
"676","Bernice","Cruz","889 Imvi Court","Ekohigej","OK","21441",""
"677","Lucy","Allen","443 Jigolo Turnpike","Duwnerva","WY","61602",""
"678","Calvin","Becker","1424 Ruro Junction","Bahesvap","RI","70821",""
"679","Belle","Frazier","1478 Geem Pass","Cimotufu","AL","45972",""
"680","Andre","Zimmerman","837 Wohbes Heights","Doitujew","ND","96905",""
"681","Viola","Wise","1912 Jokguh Drive","Ipiowve","VA","24324",""
"682","Edgar","Goodwin","1234 Ujci Mill","Kiwubru","MA","66105",""
"683","Franklin","Soto","1796 Gigza Avenue","Wegguco","NV","85779",""
"684","Ella","Haynes","1072 Jogoz Parkway","Giokaic","NC","52047",""
"685","Sean","Graves","811 Teez Lane","Zupiafa","NE","14536",""
"686","Lora","Green","68 Jadola Court","Migido","MD","39200",""
"687","Maude","Collins","289 Hokvek Way","Ludobek","PA","65680",""
"688","Dean","Leonard","711 Fijpon Turnpike","Likalkad","AZ","95728",""
"689","Victoria","Richardson","737 Jawwe Avenue","Mobcadu","IL","37652",""
"690","Cody","Carroll","892 Sokpu Grove","Buabrec","IA","69189",""
"691","Marion","Carson","630 Wewom Lane","Fucukev","NJ","12675",""
"692","Adelaide","Collins","772 Nekame Plaza","Gimlief","SC","15256",""
"693","Daisy","Webster","1735 Hekbu Pass","Amzocet","WY","79486",""
"694","Charlie","Webster","1340 Cetzaj Parkway","Luglizaj","KS","22628",""
"695","Marcus","Klein","162 Pocej Junction","Idajele","VA","99086",""
"696","Michael","Davidson","218 Gurwed View","Usmifhuf","CT","42501",""
"697","Lulu","Dawson","1967 Nawha Heights","Uznaboku","CT","86224",""
"698","Jeanette","Sherman","682 Ziopu Way","Cehene","NC","26781",""
"699","Estella","Stone","1455 Ebanip Ridge","Mifligot","MT","19015",""
"700","Joseph","Dawson","1340 Dafjet Junction","Finnembem","MN","45113",""
"701","Sue","Allen","895 Bawtod Key","Piucmu","NM","85487",""
"702","Larry","Perry","543 Bibze Terrace","Ifvitvor","SC","40801",""
"703","Lottie","Ruiz","717 Howzic Way","Ramebnak","WI","1309",""
"704","Cynthia","Gregory","156 Vipu Point","Uzobidad","MI","58349",""
"705","Mabel","Taylor","620 Peada Highway","Irtomi","UT","60822",""
"706","Marvin","Elliott","57 Hata Circle","Mafwoni","DC","35306",""
"707","Sally","Harmon","1966 Kujla Lane","Ipugijow","NY","54524",""
"708","Jennie","Vaughn","628 Ukgu Plaza","Zokuko","HI","75957",""
"709","Lura","Tran","1321 Jersok Trail","Utajuva","WA","15598",""
"710","Anthony","Walker","20 Bijut Circle","Nusonnag","IL","79210",""
"711","Mitchell","Peterson","218 Nahfo Plaza","Huufegev","NJ","38396",""
"712","Myra","Phelps","548 Cosa Lane","Febeheti","MN","2241",""
"713","Cynthia","Brewer","1987 Ovwud Terrace","Rezumuam","MI","56602",""
"714","Carl","Glover","489 Duab Turnpike","Zigodoma","WI","87502",""
"715","Derek","Myers","1789 Ipru Turnpike","Porvopwo","IL","84753",""
"716","Essie","Wolfe","248 Divgis Loop","Zatefa","FL","55976",""
"717","Leroy","Sullivan","914 Dibig Way","Pomanitec","IL","50833",""
"718","Eugenia","Herrera","1584 Nigim Mill","Fapbauc","FL","65035",""
"719","Eva","Turner","1696 Jeem Way","Enzipo","UT","51724",""
"720","Charlotte","McKinney","445 Lefku Place","Ogaceba","KY","10207",""
"721","Herbert","Miles","1188 Guzan Drive","Odguzku","PA","10562",""
"722","Henrietta","McKinney","1404 Bigbe Road","Kumzawam","LA","29385",""
"723","Winifred","Nichols","932 Solom Terrace","Cicadfu","RI","18143",""
"724","Franklin","Chambers","980 Zuju Place","Zuljorar","MS","64068",""
"725","Clyde","Tran","1867 Sagu Avenue","Zudcekel","MA","36844",""
"726","Jesus","Doyle","142 Siewu Circle","Hodasef","VA","52001",""
"727","Hattie","Newman","1226 Ezal Street","Becvatet","MN","57789",""
"728","Nellie","Pierce","1483 Hipiz Boulevard","Tuclowu","AZ","38242",""
"729","Dollie","Rice","310 Wuom Heights","Sohsomu","DC","90975",""
"730","Brett","Mitchell","1730 Usecot Ridge","Lazaco","IN","67861",""
"731","Max","Ray","1108 Tufaju Point","Gercelic","CO","88668",""
"732","Lester","Cohen","393 Hopap Ridge","Jarekwi","TX","84179",""
"733","Lucile","Gibbs","554 Wezfe Avenue","Cukaoju","MA","23262",""
"734","Dollie","Gúzman","1919 Iriro Drive","Hekekeen","NE","80077",""
"735","Leo","Howard","301 Dawuw Highway","Amanokok","CO","72184",""
"736","Adele","Stevenson","441 Benew Trail","Jadnager","OR","71031",""
"737","Sam","Lewis","1294 Akar Trail","Woviptu","NV","74690",""
"738","Kathryn","Poole","105 Noboh Court","Injijmo","UT","4678",""
"739","Jayden","Tyler","654 Leis Street","Joihavic","AK","38742",""
"740","Bruce","Garza","1320 Gupvic Street","Menozo","TN","45516",""
"741","Anthony","McKenzie","766 Saldod Trail","Veedotot","CA","32000",""
"742","Derrick","Willis","178 Azege Parkway","Refboar","OR","9829",""
"743","Isabelle","Goodwin","1779 Abaada Extension","Huisror","TX","4841",""
"744","Irene","Logan","663 Camcop Drive","Renuve","KS","1629",""
"745","Chester","Fleming","1763 Tava Heights","Pilheeke","MN","21589",""
"746","Bradley","Lynch","279 Kabaz Lane","Sokjate","HI","20453",""
"747","Olga","Pittman","1668 Odara River","Vasugir","DE","18351",""
"748","Allie","Lamb","1187 Jokri Lane","Haejzak","MD","34934",""
"749","Beatrice","Jordan","321 Elubap Park","Oczatna","IA","77894",""
"750","Nina","Pittman","1104 Rojavi Ridge","Emfuri","WV","44430",""
"751","Chad","Weaver","655 Keneg Point","Jitmofu","DE","6338",""
"752","Rosa","Floyd","599 Ivuwef Loop","Musbalem","DE","66868",""
"753","Lydia","Robertson","1475 Rivzut Trail","Gakwokrif","MA","20602",""
"754","Ellen","Adkins","1300 Uwluc Heights","Oltimgih","HI","74887",""
"755","Trevor","Glover","923 Varic River","Ejsilog","NV","84128",""
"756","Betty","Garcia","1433 Lormum Lane","Cathadow","AK","85222",""
"757","Keith","Boyd","1322 Saeg River","Gidridro","UT","80665",""
"758","Blake","Pena","1355 Sewut Square","Vohwapoj","ND","42274",""
"759","Gary","Webster","141 Galcu Avenue","Hasralli","IA","33183",""
"760","Olga","Aguilar","633 Ivpa Terrace","Coewviw","MA","72444",""
"761","Clarence","Powers","1054 Semeju Place","Nivajobe","CT","80237",""
"762","Jean","Aguilar","574 Ozkih Grove","Serobte","MT","60785",""
"763","Lewis","Lloyd","1785 Gacit Boulevard","Jivora","NJ","8168",""
"764","Frank","Patton","854 Idji Street","Kiocaeza","MS","59263",""
"765","Dale","Williamson","1871 Ofme Highway","Cazijsez","AZ","86101",""
"766","Adele","Goodman","1687 Ucofac Grove","Jazeom","MS","82931",""
"767","Rena","Stevenson","1130 Dukap Parkway","Oszaih","MO","5888",""
"768","Henry","Sims","1797 Cozham Boulevard","Behgemva","MT","91174",""
"769","Kyle","McLaughlin","335 Ruci Center","Sunriho","OR","12821",""
"770","Tom","Griffith","1372 Dufo Ridge","Ficcaes","MN","85145",""
"771","Derrick","Sparks","599 Jidni Trail","Calulu","FL","78173",""
"772","Billy","Becker","1022 Goto Mill","Nodkubah","NV","45704",""
"773","Minnie","Pierce","210 Digabe Heights","Najice","NV","80282",""
"774","Jeremy","Newman","1832 Zoke River","Zodazim","OK","13743",""
"775","Edwin","Dunn","1821 Zavib Loop","Aroiwuve","SC","86768",""
"776","Francis","Payne","838 Mafo Pike","Bomhijhi","KS","15966",""
"777","Brent","Alexander","1800 Vuti Ridge","Jeconpa","OR","3970",""
"778","Brian","Lopez","1856 Kafu Pike","Burule","VA","39767",""
"779","Adam","Garrett","1536 Rodog Ridge","Fukazoj","IN","31429",""
"780","Howard","Meyer","1206 Evumo Grove","Civeza","DE","67654",""
"781","Chase","Goodman","748 Huwuz Road","Zictazgo","AR","21522",""
"782","Jeff","Massey","740 Taha Heights","Vanazuva","NY","5520",""
"783","Luella","Olson","1459 Ibum Loop","Puhvedcim","SC","73957",""
"784","Nelle","McKenzie","1556 Mozko Court","Logzezi","OH","48650",""
"785","Angel","Salazar","974 Evome Plaza","Vumumi","WY","93434",""
"786","Phillip","Jensen","513 Tuso Place","Cevamu","NH","52066",""
"787","Susie","Keller","1729 Elgu Street","Dutsocu","IL","88087",""
"788","Eleanor","Gibson","567 Cebo Grove","Tobiire","DE","67365",""
"789","Harriet","Bell","1124 Jojri Loop","Vivmamwu","TX","9083",""
"790","Angel","Bowman","383 Loewu Court","Sivigkej","DC","52799",""
"791","Mittie","Cross","305 Zizoli Terrace","Ibbiba","AK","97578",""
"792","Isabella","Barrett","1591 Cegda Turnpike","Kosrofda","OR","96258",""
"793","Mildred","Roberson","1249 Sowek Turnpike","Calhumtun","DE","43893",""
"794","Kathryn","Tucker","188 Jofin Extension","Rebhiak","AR","31678",""
"795","Patrick","McDaniel","1076 Afufi Street","Waavri","DE","3795",""
"796","Nicholas","Spencer","1669 Padon Pike","Wetogofir","ME","77462",""
"797","Roxie","Buchanan","1882 Bemon Extension","Zohetih","OK","88011",""
"798","Landon","Taylor","1020 Natic Plaza","Wawhoepa","WI","12285",""
"799","Francis","Andrews","1060 Lenmaw Place","Ezovuihe","MD","48450",""
"800","Caleb","Holmes","1560 Liiba Mill","Voidro","KS","46882",""
"801","Alfred","Davis","921 Azori Street","Ohdipi","VT","89113",""
"802","James","Lamb","400 Nebjad Heights","Divogiho","SD","37316",""
"803","Johnny","Herrera","1668 Roko Point","Citevki","DE","70297",""
"804","Mario","Sanders","999 Gopru View","Nefsatah","DE","39403",""
"805","Rodney","McDonald","676 Lapap Loop","Osdekfo","NM","2617",""
"806","Evelyn","Marshall","1637 Penwen Park","Ejeipoupu","MD","18899",""
"807","Mathilda","Lee","210 Araovi Boulevard","Noczuhwa","MI","99832",""
"808","Arthur","Weaver","444 Moal Highway","Bijkojez","VA","53727",""
"809","Edward","Delgado","1605 Foez Manor","Sopusa","GA","75485",""
"810","Leonard","Hayes","1194 Cojdop Key","Minole","UT","49034",""
"811","Ida","Ellis","1856 Ozucit Path","Woneru","WI","82249",""
"812","Derek","Gutierrez","469 Nevmu Pass","Dasajami","RI","85173",""
"813","Anthony","Byrd","377 Bafno Center","Jujuvaz","CA","77867",""
"814","Wesley","Mullins","1835 Ifufe Place","Basazota","NE","31758",""
"815","Cory","Maldonado","571 Pemi Point","Gapaat","PA","7276",""
"816","Franklin","Hart","1813 Lenlan Road","Rifciggab","ND","91082",""
"817","Etta","Reeves","1712 Egup Lane","Buwcipa","PA","65795",""
"818","Jon","Moreno","247 Fonhiz Junction","Derejadoz","KS","2960",""
"819","Jesus","Gordon","1302 Dumak Ridge","Ruhzeak","AZ","52262",""
"820","Eula","Fernandez","800 Isza Path","Ovizoav","MD","40963",""
"821","Shane","Garcia","53 Titad Street","Ihahewev","MD","6828",""
"822","Rebecca","Barrett","164 Hapwi Grove","Novirizo","CT","48222",""
"823","Edna","Pittman","623 Dowbif View","Zivleuli","DC","25373",""
"824","Jeffrey","Wilson","729 Uwfoh River","Lavfozrij","PA","97",""
"825","Mina","Green","48 Focen Turnpike","Ergejcow","NM","33072",""
"826","Lucile","Chapman","1950 Egukil Park","Lirradag","MI","3964",""
"827","Mathilda","Perry","235 Kifovi Place","Ogijra","VA","94093",""
"828","Olivia","Blake","999 Wuzlib Heights","Kucecosi","MD","19951",""
"829","Winifred","Spencer","1358 Noel Street","Gezutolis","GA","91328",""
"830","Rachel","Carlson","1256 Jimor Avenue","Renlurziz","AZ","67995",""
"831","Jessie","Carter","322 Jabsa Loop","Azizmob","CA","54833",""
"832","Violet","Brown","1375 Awapuc Terrace","Dazzoti","NM","48027",""
"833","Elizabeth","Myers","1734 Tawogo Pass","Reppanuw","HI","73754",""
"834","Alejandro","Lamb","956 Pemiw Park","Zarohiv","MA","47221",""
"835","Nicholas","Cross","123 Sovu Pike","Papumuc","WY","18992",""
"836","Kenneth","Mullins","809 Halti Place","Melzejwi","VA","72201",""
"837","Earl","Scott","711 Uvako Street","Vemugfa","AR","12705",""
"838","Oscar","Garner","585 Amkus Point","Rakvivip","WI","72397",""
"839","Gertrude","Armstrong","1615 Tajri Place","Hawtesbo","CO","82714",""
"840","Evelyn","Shelton","141 Fies Heights","Amatezul","OH","52902",""
"841","Francis","Holt","1099 Emuiwi View","Nokojog","MS","18520",""
"842","Seth","Mendoza","1017 Mujuj Turnpike","Sojasuz","LA","70351",""
"843","Lucas","Dawson","774 Fossa Center","Gehpiwe","VA","29008",""
"844","Alta","Morales","1395 Mogo Pass","Ninhaiv","MT","15015",""
"845","Peter","Wallace","152 Mahi Place","Sicempov","CA","74424",""
"846","Nina","Page","1476 Miaf Point","Sawuane","AK","20103",""
"847","Corey","Johnson","1732 Imbum Road","Pukvonni","KS","47411",""
"848","Lucile","Leonard","188 Dugu Drive","Jehvomom","NY","35041",""
"849","Anne","Morton","476 Lage Pass","Gigikol","IA","20305",""
"850","Austin","Henderson","1415 Tidudo Manor","Gatdeli","AR","1049",""
"851","Edward","Hill","748 Necsic Loop","Vabmape","NC","52734",""
"852","Chris","Jimenez","1841 Unziw Turnpike","Mupjuvica","WY","27183",""
"853","Essie","Vega","350 Dooc Terrace","Feafovu","NY","79609",""
"854","Hester","Yates","793 Babe Pass","Makemke","MS","4807",""
"855","Myrtle","Kelley","1060 Gihul Street","Haworjow","SC","24390",""
"856","Mollie","Clark","821 Koozu Heights","Cinuos","OH","72033",""
"857","Frank","Brown","1732 Ujuna Terrace","Sazseppir","MS","65488",""
"858","Millie","Stone","483 Mamoh Drive","Cipakcur","ME","35702",""
"859","Gertrude","Parsons","1530 Ufni Boulevard","Failoif","ME","38111",""
"860","Violet","Sanders","576 Misco Lane","Hesuafi","VA","49206",""
"861","Bruce","Thompson","841 Uboj Court","Loohce","WV","49375",""
"862","Stephen","Hicks","1734 Fuva Drive","Zibomsaw","VA","61234",""
"863","Charlotte","Maldonado","882 Wago Boulevard","Wackucmid","WI","43675",""
"864","Laura","Walker","323 Rout Circle","Rulool","MA","8652",""
"865","Georgie","Greene","348 Athuc Pike","Egzuuw","NM","14803",""
"866","Adam","Barnett","1839 Iworen Parkway","Rumafpoz","CO","41893",""
"867","Phoebe","Paul","1972 Sirkir Pass","Hemucuz","AK","81377",""
"868","Elnora","Webb","1204 Ufupak Glen","Pewudje","VT","68061",""
"869","Agnes","Maldonado","711 Idpad Plaza","Kehsore","DC","33403",""
"870","Cordelia","Underwood","1831 Tagocu Extension","Ladkazen","TN","18227",""
"871","Ada","Fowler","1811 Apuki Extension","Vuvukju","MT","1933",""
"872","Sara","Porter","840 Guami Path","Rigamic","IA","90714",""
"873","Arthur","Gibson","1519 Usboj Boulevard","Wulemla","NV","44947",""
"874","Fanny","Wade","1594 Lite Street","Uvpono","CT","98038",""
"875","Jimmy","Chandler","1889 Givdi Center","Deucfo","IL","8643",""
"876","Philip","Hodges","290 Edokot Highway","Govraeni","NC","7376",""
"877","Leon","Alvarez","692 Torez Extension","Loflivep","OR","56107",""
"878","Betty","Ramos","1856 Ufuza Terrace","Tohhohi","CO","30356",""
"879","Delia","McCarthy","212 Kabrif Center","Cesaznaw","TX","44594",""
"880","Millie","Burke","375 Ijuvi Park","Saitah","MA","93560",""
"881","Lottie","Long","13 Hofe Street","Hemmidac","NV","31641",""
"882","Sean","Clarke","1215 Nikah Circle","Babili","ME","25362",""
"883","Sadie","Barber","171 Ihiho Point","Ockubi","MS","70651",""
"884","Marie","Cummings","1606 Uhti Loop","Ifpirud","NH","56015",""
"885","Maude","Harrison","84 Real Extension","Zeadeud","WI","48884",""
"886","Clayton","Fleming","1369 Uzke Circle","Ublool","GA","75367",""
"887","Nannie","McCoy","1676 Wonzid Path","Igmoja","VT","14575",""
"888","Oscar","Washington","217 Lome Square","Ronecavap","OK","60453",""
"889","Ian","Jennings","1336 Kuoc Glen","Jaakawu","MN","56596",""
"890","Jay","Brady","619 Nifu Point","Zimpucu","VT","35897",""
"91","Philip","George","802 Zefah Trail","Anojicif","AZ","21135",""
"892","Flora","Murray","1361 Opmaj Lane","Tukboowe","ID","21722",""
"893","Oscar","Rowe","1739 Conaf Mill","Ruhukezej","TX","92284",""
"894","Evelyn","Daniel","910 Laliwo Road","Owzemid","HI","16536",""
"895","Eula","Meyer","498 Cijem Grove","Visommup","MD","62603",""
"896","Richard","Stone","534 Dalim Pass","Ciigku","AR","17388",""
"897","Don","James","844 Amafi Park","Owogekewo","SC","85903",""
"898","Teresa","Welch","287 Uwofe Center","Egilniv","SC","41123",""
"899","Marion","Stevens","1515 Itadul Path","Disila","IA","29928",""
"900","Leonard","Wade","427 Jahnav Park","Wowwuika","GA","83847",""
"901","Jorge","Hoffman","1365 Lurdo Ridge","Usuegbi","NE","7449",""
"902","Sadie","Reid","950 Ruis Street","Tupiob","MO","47509",""
"903","Violet","Pearson","1450 Dipu Square","Vectotuj","WA","41129",""
"904","Christine","Ball","356 Ihduz Park","Tozheam","CA","71450",""
"905","Lily","Wells","481 Ucwa Extension","Cifuhul","CA","52711",""
"906","Warren","Jenkins","1642 Kojviz Point","Zavhaha","UT","5737",""
"907","Blanche","Park","1653 Zoso View","Rehdenom","DC","61040",""
"908","Nathan","Holland","870 Pethib Road","Alukapuj","NE","10690",""
"909","Lottie","Soto","1461 Igonof Lane","Ocoavlel","SC","58128",""
"910","Harry","Olson","672 Fawma Loop","Tirjazbah","MN","88042",""
"911","Richard","Nelson","122 Wolvin Grove","Horofo","OH","66988",""
"912","Mabel","Reynolds","926 Tuvip Mill","Utcajgo","CO","92218",""
"913","Delia","Valdez","623 Vikal Pass","Desirura","MS","62129",""
"914","Clarence","Gúzman","308 Udinu Lane","Docovuz","TN","14221",""
"915","Gavin","Fleming","654 Sate Pass","Gawbafeg","MD","86019",""
"916","Herman","Harmon","433 Tusbu Court","Nivuzwaf","DC","22216",""
"917","Hunter","Howell","1364 Hucgo Road","Gugkifaw","UT","91334",""
"918","Effie","Osborne","90 Befah Street","Taokha","VA","37540",""
"919","Sarah","Ramirez","499 Vivep Point","Larbodco","OK","55110",""
"920","Charles","Fernandez","1001 Enase Path","Kepdijfew","SD","9718",""
"921","Dorothy","Morgan","1184 Titbiv Drive","Rarnodkac","IN","30997",""
"922","Curtis","Figueroa","1757 Jomu Key","Otiwibe","SC","58509",""
"923","Cecelia","Reynolds","880 Navjog Parkway","Lerosup","VT","30003",""
"924","Isaiah","Grant","273 Umuvic Terrace","Tentaro","ME","33992",""
"925","Leo","Hogan","1884 Loga Pike","Wekefuh","VT","47463",""
"926","Derrick","Coleman","1934 Mudiw Lane","Alkacev","NY","34173",""
"927","Alex","McCoy","1982 Mumub Lane","Mizenta","NV","40566",""
"928","Jeremiah","Ortega","20 Wite Avenue","Rewcebib","HI","98081",""
"929","Logan","Santiago","1094 Puadi Pass","Noksohte","AK","71490",""
"930","Lora","Huff","1575 Ehewe Manor","Wadilkus","VA","94001",""
"931","Leon","Jacobs","1350 Dimu Pike","Zetube","NJ","75578",""
"932","Derrick","Hill","40 Ulitaf Way","Pedeve","DE","81062",""
"933","Curtis","Watkins","1083 Ebho Manor","Mafnebu","IA","88678",""
"934","Harvey","Elliott","752 Adfi Key","Vabejla","WA","39945",""
"935","Alfred","Henry","802 Camdi Road","Eragemod","MS","51261",""
"936","Carl","Kelley","1824 Wojcat Heights","Tapiami","MT","21287",""
"937","Ronnie","Strickland","59 Hulli Glen","Nisehju","GA","98559",""
"938","Mildred","Page","730 Sajawi Highway","Nikoccu","RI","82504",""
"939","Julia","Hodges","1954 Relozi Path","Gunioze","IN","56165",""
"940","Ian","Douglas","1771 Reus Circle","Zizpelkaz","GA","3930",""
"941","Martin","Mills","1545 Ogme Court","Neheboc","AZ","75041",""
"942","Virgie","Vaughn","775 Rudveb Avenue","Opwapu","NE","76601",""
"943","Alberta","Cobb","145 Taju Mill","Wewkodile","RI","65193",""
"944","Rosie","Bryan","1098 Neni Drive","Tialuvog","NC","11443",""
"945","Elsie","Vasquez","1620 Vaehi Mill","Timanuzuc","VA","3602",""
"946","Charles","Bishop","991 Pezgod Court","Kamires","MT","75698",""
"947","Delia","Gill","1532 Kicdec Extension","Raubiwew","MO","97742",""
"948","Howard","Burton","421 Migeh Trail","Vimunza","NV","72001",""
"949","Derrick","Norton","156 Wechob Loop","Powtufo","MI","82337",""
"950","Lina","Briggs","1573 Kobna Park","Gufimmag","MA","46412",""
"951","Lucas","Perkins","772 Toel Boulevard","Mehkolme","GA","57774",""
"952","Anne","Hunt","417 Diriw Plaza","Loszunsub","WY","51699",""
"953","Tyler","Tyler","1614 Pufsam Loop","Vuwesopo","NH","42656",""
"954","Marguerite","Zimmerman","745 Tevki Point","Vugvusvev","KY","12523",""
"955","Kate","Bass","492 Ejopo Place","Uphicze","AZ","81696",""
"956","Willie","Patrick","867 Hutebu Loop","Murohce","AZ","16192",""
"957","Teresa","Walters","1722 Sezed Junction","Zizabcad","WV","66792",""
"958","Bryan","Schmidt","280 Kaos Way","Pawcordim","MT","20796",""
"959","Evan","Hudson","509 Ejigit Key","Vemerilef","SD","98394",""
"960","Jordan","Meyer","264 Cipgu Glen","Fesnotven","SD","8586",""
"961","Bertha","Copeland","659 Gofve Turnpike","Aliipadan","SC","74626",""
"962","Trevor","Taylor","1834 Kikva Extension","Vuuknod","CO","26529",""
"963","Bill","Holt","272 Jodbo Glen","Kagpasfun","MS","33362",""
"964","Mike","Carroll","1907 Kofile River","Vodupafir","SD","36752",""
"965","Shawn","Castro","527 Fehhej Highway","Tigkegem","OH","85449",""
"966","Olive","Willis","1875 Ebuwaz Grove","Ranhamtuk","PA","95273",""
"967","Jose","Jacobs","897 Fotguf Center","Wasoze","OR","60936",""
"968","Lucile","Carpenter","822 Hugis Mill","Hunwuwa","NH","74673",""
"969","Adele","Green","1323 Divoha Junction","Zomesnes","VA","52537",""
"970","Henrietta","Hall","84 Ijago Parkway","Bobohiogu","WI","81213",""
"971","Sarah","Stevenson","71 Luza Circle","Aramebag","NM","36913",""
"972","Marcus","Wright","1966 Vabje Circle","Beraket","AL","2795",""
"973","Rena","Brewer","865 Panwes Heights","Okomago","LA","19727",""
"974","Winnie","Clark","1929 Dopde Road","Fodlule","VA","27688",""
"975","Dominic","Ramos","713 Heneci Road","Mizobwuj","AL","44634",""
"976","Madge","Copeland","857 Figu Highway","Kokkoggam","AZ","89510",""
"977","Bill","Walters","1933 Rizeh Pass","Umbuble","AZ","48493",""
"978","Brett","Carr","1075 Wikma Place","Lujrunfoh","AZ","33836",""
"979","Cody","Cruz","19 Tedki Mill","Asfahfib","AR","94726",""
"980","Millie","Harvey","1198 Jegad Way","Ufakipma","KS","15421",""
"981","Ellen","Lewis","1117 Tewu Center","Sagpodmup","OK","30164",""
"982","Mina","Chapman","1756 Akejak Turnpike","Tiwpetrof","DE","2585",""
"983","Augusta","Gibbs","474 Asro Boulevard","Weogzag","TN","13861",""
"984","Winnie","Ortiz","820 Bimas Trail","Revahpo","CO","14411",""
"985","Myrtle","Keller","221 Lones Point","Zudeoka","SC","75893",""
"986","Jordan","Tate","218 Joze Highway","Cucjeaf","HI","19715",""
"987","Johanna","Holland","1354 Tadip Heights","Rulcenik","TN","94571",""
"988","Cory","Duncan","468 Gerfa Turnpike","Posapkog","NM","9998",""
"989","Myra","Romero","1440 Jedu Boulevard","Lacmacne","SD","90504",""
"990","Hettie","Fernandez","641 Hohu Plaza","Ladpolki","AR","68837",""
"991","Chester","Wagner","1815 Kugro Highway","Nihtaed","MT","72862",""
"992","Marc","Simon","1035 Segma Glen","Gairbil","VT","8084",""
"993","Seth","Sullivan","1081 Emwad Road","Koltipu","WV","44295",""
"994","Blanche","Shaw","1529 Rejdip Mill","Zajjacimi","CO","50039",""
"995","Troy","Neal","1983 Nupis Place","Migoha","ID","49689",""
"996","Eric","Wong","1702 Rirre Highway","Usawakoc","KS","80697",""
"997","Cornelia","Bass","1091 Wenev Park","Tamibu","MA","74728",""
"998","Randall","Gray","1213 Toofi Way","Anacte","OK","89731",""
"999","Iva","Manning","594 Lapij Point","Lafcemi","DE","91978",""
"1000","Lottie","Rice","876 Ohpuh Place","Voknorgiw","NV","24056",""